CCSDS_OMM_VERS,COMMENT,CREATION_DATE,ORIGINATOR,OBJECT_NAME,OBJECT_ID,CENTER_NAME,REF_FRAME,TIME_SYSTEM,MEAN_ELEMENT_THEORY,EPOCH,MEAN_MOTION,ECCENTRICITY,INCLINATION,RA_OF_ASC_NODE,ARG_OF_PERICENTER,MEAN_ANOMALY,EPHEMERIS_TYPE,CLASSIFICATION_TYPE,NORAD_CAT_ID,ELEMENT_SET_NO,REV_AT_EPOCH,BSTAR,MEAN_MOTION_DOT,MEAN_MOTION_DDOT,SEMIMAJOR_AXIS,PERIOD,APOAPSIS,PERIAPSIS,OBJECT_TYPE,RCS_SIZE,COUNTRY_CODE,LAUNCH_DATE,SITE,DECAY_DATE,FILE,GP_ID,TLE_LINE0,TLE_LINE1,TLE_LINE2
"2.0","GENERATED VIA SPACE-TRACK.ORG API","2020-04-29T17:42:05","18 SPCS","IRIDIUM 176","2019-002B","EARTH","TEME","UTC","SGP4","2020-04-29T05:09:58.612608","14.72249900","0.00023300","86.6169","209.6624","92.6243","267.5241","0","U","43923","999","6968","0.00001964700000","0.00000149","0.0000000000000","7032.031","97.809","655.535","652.258","PAYLOAD","LARGE","US","2019-01-11","AFWTR","","2741376","153104111","0 IRIDIUM 176","1 43923U 19002B   20120.21526172 +.00000149 +00000-0 +19647-4 0  9999","2 43923 086.6169 209.6624 0002330 092.6243 267.5241 14.72249900069686"
"2.0","GENERATED VIA SPACE-TRACK.ORG API","2020-04-29T02:11:48","18 SPCS","IRIDIUM 176","2019-002B","EARTH","TEME","UTC","SGP4","2020-04-28T19:22:44.084352","14.72249772","0.00023280","86.6169","209.8324","92.6453","267.5031","0","U","43923","999","6962","0.00001871300000","0.00000143","0.0000000000000","7032.032","97.809","655.534","652.260","PAYLOAD","LARGE","US","2019-01-11","AFWTR","","2740970","153075546","0 IRIDIUM 176","1 43923U 19002B   20119.80745468 +.00000143 +00000-0 +18713-4 0  9990","2 43923 086.6169 209.8324 0002328 092.6453 267.5031 14.72249772069623"
"2.0","GENERATED VIA SPACE-TRACK.ORG API","2020-04-29T02:11:48","18 SPCS","SL-18 DEB","1993-014BJ","EARTH","TEME","UTC","SGP4","2020-04-28T17:03:10.801152","14.80602198","0.00655340","75.7400","282.8573","347.2290","12.7232","0","U","35359","999","67492","0.00041742000000","0.00003304","0.0000000000000","7005.560","97.257","673.336","581.515","DEBRIS","SMALL","CIS","1993-03-25","PKMTR","","2740970","153069225","0 SL-18 DEB","1 35359U 93014BJ  20119.71054168 +.00003304 +00000-0 +41742-3 0  9998","2 35359 075.7400 282.8573 0065534 347.2290 012.7232 14.80602198674929"
"2.0","GENERATED VIA SPACE-TRACK.ORG API","2020-04-28T14:16:09","18 SPCS","IRIDIUM 176","2019-002B","EARTH","TEME","UTC","SGP4","2020-04-28T07:57:37.132992","14.72249652","0.00023260","86.6169","210.0309","92.4867","267.6617","0","U","43923","999","6955","0.00001903500000","0.00000145","0.0000000000000","7032.032","97.809","655.533","652.261","PAYLOAD","LARGE","US","2019-01-11","AFWTR","","2740619","153028470","0 IRIDIUM 176","1 43923U 19002B   20119.33167978  .00000145  00000-0  19035-4 0  9992","2 43923  86.6169 210.0309 0002326  92.4867 267.6617 14.72249652 69555"
"2.0","GENERATED VIA SPACE-TRACK.ORG API","2020-04-28T17:21:57","18 SPCS","IRIDIUM 176","2019-002B","EARTH","TEME","UTC","SGP4","2020-04-28T04:41:52.292832","14.72249583","0.00023250","86.6169","210.0875","92.4314","267.7169","0","U","43923","999","6953","0.00001829500000","0.00000140","0.0000000000000","7032.032","97.809","655.532","652.262","PAYLOAD","LARGE","US","2019-01-11","AFWTR","","2740780","153051344","0 IRIDIUM 176","1 43923U 19002B   20119.19574413 +.00000140 +00000-0 +18295-4 0  9994","2 43923 086.6169 210.0875 0002325 092.4314 267.7169 14.72249583069533"
"2.0","GENERATED VIA SPACE-TRACK.ORG API","2020-04-28T17:21:57","18 SPCS","SL-18 DEB","1993-014BJ","EARTH","TEME","UTC","SGP4","2020-04-28T04:04:45.405408","14.80599182","0.00655390","75.7400","283.8117","348.6096","11.3602","0","U","35359","999","67484","0.00044729000000","0.00003541","0.0000000000000","7005.570","97.257","673.349","581.521","DEBRIS","SMALL","CIS","1993-03-25","PKMTR","","2740780","153045023","0 SL-18 DEB","1 35359U 93014BJ  20119.16996997 +.00003541 +00000-0 +44729-3 0  9993","2 35359 075.7400 283.8117 0065539 348.6096 011.3602 14.80599182674843"
"2.0","GENERATED VIA SPACE-TRACK.ORG API","2020-04-28T06:36:09","18 SPCS","SL-18 DEB","1993-014BJ","EARTH","TEME","UTC","SGP4","2020-04-28T02:27:27.244224","14.80598118","0.00655810","75.7400","283.9310","348.8036","11.1685","0","U","35359","999","67549","0.00041915000000","0.00003317","0.0000000000000","7005.573","97.257","673.382","581.495","DEBRIS","SMALL","CIS","1993-03-25","PKMTR","","2740526","153026468","0 SL-18 DEB","1 35359U 93014BJ  20119.10239866  .00003317  00000-0  41915-3 0  9997","2 35359  75.7400 283.9310 0065581 348.8036  11.1685 14.80598118675491"
"2.0","GENERATED VIA SPACE-TRACK.ORG API","2020-04-28T01:38:45","18 SPCS","IRIDIUM 176","2019-002B","EARTH","TEME","UTC","SGP4","2020-04-27T17:16:45.335424","14.72249422","0.00023220","86.6169","210.2860","92.4733","267.6750","0","U","43923","999","6946","0.00001673400000","0.00000130","0.0000000000000","7032.033","97.809","655.531","652.265","PAYLOAD","LARGE","US","2019-01-11","AFWTR","","2740363","153021241","0 IRIDIUM 176","1 43923U 19002B   20118.71996916 +.00000130 +00000-0 +16734-4 0  9992","2 43923 086.6169 210.2860 0002322 092.4733 267.6750 14.72249422069460"
"2.0","GENERATED VIA SPACE-TRACK.ORG API","2020-04-27T14:26:09","18 SPCS","IRIDIUM 176","2019-002B","EARTH","TEME","UTC","SGP4","2020-04-27T07:29:30.801120","14.72249099","0.00023140","86.6168","210.4561","92.2862","267.8620","0","U","43923","999","6940","0.00000460890000","0.00000054","0.0000000000000","7032.034","97.809","655.526","652.272","PAYLOAD","LARGE","US","2019-01-11","AFWTR","","2740101","152976644","0 IRIDIUM 176","1 43923U 19002B   20118.31216205  .00000054  00000-0  46089-5 0  9996","2 43923  86.6168 210.4561 0002314  92.2862 267.8620 14.72249099 69403"
"2.0","GENERATED VIA SPACE-TRACK.ORG API","2020-04-27T17:02:54","18 SPCS","SL-18 DEB","1993-014BJ","EARTH","TEME","UTC","SGP4","2020-04-26T21:15:59.656896","14.80590093","0.00655750","75.7399","286.0787","351.8886","8.1233","0","U","35359","999","67465","0.00040283000000","0.00003187","0.0000000000000","7005.599","97.258","673.403","581.524","DEBRIS","SMALL","CIS","1993-03-25","PKMTR","","2740206","152991792","0 SL-18 DEB","1 35359U 93014BJ  20117.88610714 +.00003187 +00000-0 +40283-3 0  9997","2 35359 075.7399 286.0787 0065575 351.8886 008.1233 14.80590093674656"
"2.0","GENERATED VIA SPACE-TRACK.ORG API","2020-04-26T22:46:09","18 SPCS","SL-18 DEB","1993-014BJ","EARTH","TEME","UTC","SGP4","2020-04-26T19:38:41.449920","14.80589645","0.00656270","75.7400","286.1980","352.0805","7.9338","0","U","35359","999","67530","0.00040303000000","0.00003188","0.0000000000000","7005.600","97.258","673.441","581.489","DEBRIS","SMALL","CIS","1993-03-25","PKMTR","","2739899","152932848","0 SL-18 DEB","1 35359U 93014BJ  20117.81853530  .00003188  00000-0  40303-3 0  9999","2 35359  75.7400 286.1980 0065627 352.0805   7.9338 14.80589645675304"
"2.0","GENERATED VIA SPACE-TRACK.ORG API","2020-04-27T02:15:36","18 SPCS","IRIDIUM 176","2019-002B","EARTH","TEME","UTC","SGP4","2020-04-26T15:10:46.566624","14.72248984","0.00023180","86.6169","210.7395","92.3316","267.8166","0","U","43923","999","6930","0.00000501080000","0.00000056","0.0000000000000","7032.034","97.809","655.529","652.269","PAYLOAD","LARGE","US","2019-01-11","AFWTR","","2739968","152952702","0 IRIDIUM 176","1 43923U 19002B   20117.63248341 +.00000056 +00000-0 +50108-5 0  9995","2 43923 086.6169 210.7395 0002318 092.3316 267.8166 14.72248984069307"
"2.0","GENERATED VIA SPACE-TRACK.ORG API","2020-04-26T16:55:34","18 SPCS","IRIDIUM 176","2019-002B","EARTH","TEME","UTC","SGP4","2020-04-26T11:55:01.716096","14.72248974","0.00023190","86.6169","210.7961","92.3088","267.8395","0","U","43923","999","6928","0.00000493300000","0.00000056","0.0000000000000","7032.034","97.809","655.530","652.268","PAYLOAD","LARGE","US","2019-01-11","AFWTR","","2739807","152909652","0 IRIDIUM 176","1 43923U 19002B   20117.49654764 +.00000056 +00000-0 +49330-5 0  9994","2 43923 086.6169 210.7961 0002319 092.3088 267.8395 14.72248974069283"
"2.0","GENERATED VIA SPACE-TRACK.ORG API","2020-04-26T07:56:09","18 SPCS","IRIDIUM 176","2019-002B","EARTH","TEME","UTC","SGP4","2020-04-26T00:29:54.743136","14.72248926","0.00023210","86.6168","210.9946","92.3182","267.8301","0","U","43923","999","6921","0.00000458280000","0.00000054","0.0000000000000","7032.034","97.809","655.531","652.267","PAYLOAD","LARGE","US","2019-01-11","AFWTR","","2739636","152886721","0 IRIDIUM 176","1 43923U 19002B   20117.02077249  .00000054  00000-0  45828-5 0  9996","2 43923  86.6168 210.9946 0002321  92.3182 267.8301 14.72248926 69212"
"2.0","GENERATED VIA SPACE-TRACK.ORG API","2020-04-26T02:32:17","18 SPCS","IRIDIUM 176","2019-002B","EARTH","TEME","UTC","SGP4","2020-04-25T19:36:17.466048","14.72248927","0.00023180","86.6168","211.0796","92.2512","267.8971","0","U","43923","999","6918","0.00000436210000","0.00000052","0.0000000000000","7032.034","97.809","655.529","652.269","PAYLOAD","LARGE","US","2019-01-11","AFWTR","","2739478","152881652","0 IRIDIUM 176","1 43923U 19002B   20116.81686882 +.00000052 +00000-0 +43621-5 0  9998","2 43923 086.6168 211.0796 0002318 092.2512 267.8971 14.72248927069189"
"2.0","GENERATED VIA SPACE-TRACK.ORG API","2020-04-26T02:32:17","18 SPCS","SL-18 DEB","1993-014BJ","EARTH","TEME","UTC","SGP4","2020-04-25T19:19:08.005728","14.80583289","0.00656360","75.7397","287.9877","354.6417","5.4058","0","U","35359","999","67449","0.00038181000000","0.00003019","0.0000000000000","7005.620","97.258","673.467","581.503","DEBRIS","SMALL","CIS","1993-03-25","PKMTR","","2739478","152875330","0 SL-18 DEB","1 35359U 93014BJ  20116.80495377 +.00003019 +00000-0 +38181-3 0  9992","2 35359 075.7397 287.9877 0065636 354.6417 005.4058 14.80583289674499"
